QIANFAN-1               
1 60379U 24140A   25351.87715326  .00000072  00000+0  92529-4 0  9990
2 60379  88.9764 298.7484 0016454 194.6755 165.3921 13.50978889 68041
QIANFAN-2               
1 60380U 24140B   25351.90613312  .00000070  00000+0  88875-4 0  9995
2 60380  88.9750 298.5841 0012673 163.6600 196.4962 13.50982582 68109
QIANFAN-3               
1 60381U 24140C   25351.84023142  .00000069  00000+0  87747-4 0  9990
2 60381  88.9743 298.7231 0013347 177.3441 182.7784 13.50983088 68002
QIANFAN-4               
1 60382U 24140D   25351.88949007  .00000078  00000+0  10210-3 0  9992
2 60382  88.9767 298.6169 0012805 166.4501 193.6996 13.50978829 68139
QIANFAN-5               
1 60383U 24140E   25351.86492781  .00000071  00000+0  91538-4 0  9999
2 60383  88.9742 298.7459 0014259 189.7033 170.3845 13.50980818 67998
QIANFAN-6               
1 60384U 24140F   25351.88551945  .00000080  00000+0  10583-3 0  9990
2 60384  88.9769 298.4914 0012736 172.5593 187.5749 13.50981182 68191
QIANFAN-7               
1 60385U 24140G   25351.86123865  .00000572  00000+0  22605-3 0  9999
2 60385  88.9785 293.1195 0016554  30.5926 329.6230 14.27656442 71122
QIANFAN-8               
1 60386U 24140H   25351.81972440  .00000092  00000+0  12373-3 0  9994
2 60386  88.9770 298.7358 0016083 176.8244 183.3013 13.50979117 68035
